$$SOE
2460728.500000000, A.D. 2025-Feb-22 00:00:00.0000, -3.221115682049749E+08, -4.877867639066439E+08, 4.179608597891599E+07,
2460735.500000000, A.D. 2025-Mar-01 00:00:00.0000, -3.154734736579112E+08, -4.940771964066280E+08, 4.137511335293931E+07,
2460742.500000000, A.D. 2025-Mar-08 00:00:00.0000, -3.087599085637755E+08, -5.002495140777639E+08, 4.094424292680126E+07,
2460749.500000000, A.D. 2025-Mar-15 00:00:00.0000, -3.019730834306838E+08, -5.063032247346957E+08, 4.050365818485463E+07,
2460756.500000000, A.D. 2025-Mar-22 00:00:00.0000, -2.951151930329618E+08, -5.122378734496437E+08, 4.005354241825059E+07,
2460763.500000000, A.D. 2025-Mar-29 00:00:00.0000, -2.881884168467074E+08, -5.180530433363465E+08, 3.959407859395993E+07,
2460770.500000000, A.D. 2025-Apr-05 00:00:00.0000, -2.811949178278536E+08, -5.237483554661558E+08, 3.912544914515072E+07,
2460777.500000000, A.D. 2025-Apr-12 00:00:00.0000, -2.741368414575806E+08, -5.293234678126555E+08, 3.864783586771664E+07,
2460784.500000000, A.D. 2025-Apr-19 00:00:00.0000, -2.670163152409383E+08, -5.347780741060391E+08, 3.816141986767927E+07,
2460791.500000000, A.D. 2025-Apr-26 00:00:00.0000, -2.598354483855328E+08, -5.401119027999575E+08, 3.766638151751900E+07,
2460798.500000000, A.D. 2025-May-03 00:00:00.0000, -2.525963315449854E+08, -5.453247161312659E+08, 3.716290041215909E+07,
2460805.500000000, A.D. 2025-May-10 00:00:00.0000, -2.453010365968628E+08, -5.504163092636933E+08, 3.665115532232270E+07,
2460812.500000000, A.D. 2025-May-17 00:00:00.0000, -2.379516164166259E+08, -5.553865095563540E+08, 3.613132413824403E+07,
2460819.500000000, A.D. 2025-May-24 00:00:00.0000, -2.305501044720508E+08, -5.602351760117013E+08, 3.560358378311586E+07,
2460826.500000000, A.D. 2025-May-31 00:00:00.0000, -2.230985138189567E+08, -5.649621985922750E+08, 3.506811008323169E+07,
2460833.500000000, A.D. 2025-Jun-07 00:00:00.0000, -2.155988358980383E+08, -5.695674962016832E+08, 3.452507772997311E+07,
2460840.500000000, A.D. 2025-Jun-14 00:00:00.0000, -2.080530414961851E+08, -5.740510139965674E+08, 3.397466049592817E+07,
2460847.500000000, A.D. 2025-Jun-21 00:00:00.0000, -2.004630826541950E+08, -5.784127233008947E+08, 3.341703132609808E+07,
2460854.500000000, A.D. 2025-Jun-28 00:00:00.0000, -1.928308923916302E+08, -5.826526223583035E+08, 3.285236216147560E+07,
2460861.500000000, A.D. 2025-Jul-05 00:00:00.0000, -1.851583837647819E+08, -5.867707357661816E+08, 3.228082381036910E+07,
2460868.500000000, A.D. 2025-Jul-12 00:00:00.0000, -1.774474494478921E+08, -5.907671133965219E+08, 3.170258591088739E+07,
2460875.500000000, A.D. 2025-Jul-19 00:00:00.0000, -1.696999616470843E+08, -5.946418293781816E+08, 3.111781692015919E+07,
2460882.500000000, A.D. 2025-Jul-26 00:00:00.0000, -1.619177721360240E+08, -5.983949811966990E+08, 3.052668410637441E+07,
2460889.500000000, A.D. 2025-Aug-02 00:00:00.0000, -1.541027123468703E+08, -6.020266888896706E+08, 2.992935353940639E+07,
2460896.500000000, A.D. 2025-Aug-09 00:00:00.0000, -1.462565934921156E+08, -6.055370943520098E+08, 2.932599007672033E+07,
2460903.500000000, A.D. 2025-Aug-16 00:00:00.0000, -1.383812066394953E+08, -6.089263608139936E+08, 2.871675733244130E+07,
2460910.500000000, A.D. 2025-Aug-23 00:00:00.0000, -1.304783224465706E+08, -6.121946724752532E+08, 2.810181760423815E+07,
2460917.500000000, A.D. 2025-Aug-30 00:00:00.0000, -1.225496902253606E+08, -6.153422335802615E+08, 2.748133178637809E+07,
2460924.500000000, A.D. 2025-Sep-06 00:00:00.0000, -1.145970377544840E+08, -6.183692659344426E+08, 2.685545948093933E+07,
2460931.500000000, A.D. 2025-Sep-13 00:00:00.0000, -1.066220735086886E+08, -6.212760073429778E+08, 2.622435925764316E+07,
2460938.500000000, A.D. 2025-Sep-20 00:00:00.0000, -9.862648803150436E+07, -6.240627126163000E+08, 2.558818862783316E+07,
2460945.500000000, A.D. 2025-Sep-27 00:00:00.0000, -9.061195339173278E+07, -6.267296540306985E+08, 2.494710388997784E+07,
2460952.500000000, A.D. 2025-Oct-04 00:00:00.0000, -8.258012273997158E+07, -6.292771207045653E+08, 2.430126007588601E+07,
2460959.500000000, A.D. 2025-Oct-11 00:00:00.0000, -7.453263033830485E+07, -6.317054178327448E+08, 2.365081095489305E+07,
2460966.500000000, A.D. 2025-Oct-18 00:00:00.0000, -6.647109177890762E+07, -6.340148660527276E+08, 2.299590904754257E+07,
2460973.500000000, A.D. 2025-Oct-25 00:00:00.0000, -5.839710425141159E+07, -6.362058009309568E+08, 2.233670563675144E+07,
2460980.500000000, A.D. 2025-Nov-01 00:00:00.0000, -5.031224681896113E+07, -6.382785725530457E+08, 2.167335077393174E+07,
2460987.500000000, A.D. 2025-Nov-08 00:00:00.0000, -4.221808066781469E+07, -6.402335452486880E+08, 2.100599327412176E+07,
2460994.500000000, A.D. 2025-Nov-15 00:00:00.0000, -3.411614918213850E+07, -6.420710975092719E+08, 2.033478068154889E+07,
2461001.500000000, A.D. 2025-Nov-22 00:00:00.0000, -2.600797744094589E+07, -6.437916218776137E+08, 1.965985918644285E+07,
2461008.500000000, A.D. 2025-Nov-29 00:00:00.0000, -1.789507129017952E+07, -6.453955236742716E+08, 1.898137359967759E+07,
2461015.500000000, A.D. 2025-Dec-06 00:00:00.0000, -9.778918267221155E+06, -6.468832186956220E+08, 1.829946758276966E+07,
2461022.500000000, A.D. 2025-Dec-13 00:00:00.0000, -1.660989943828683E+06, -6.482551332529948E+08, 1.761428381777808E+07,
2461029.500000000, A.D. 2025-Dec-20 00:00:00.0000, 6.457257806137288E+06, -6.495117055290174E+08, 1.692596388014662E+07,
2461036.500000000, A.D. 2025-Dec-27 00:00:00.0000, 1.457438554063551E+07, -6.506533856592282E+08, 1.623464812465861E+07,
2461043.500000000, A.D. 2026-Jan-03 00:00:00.0000, 2.268897052598911E+07, -6.516806351534508E+08, 1.554047566798639E+07,
2461050.500000000, A.D. 2026-Jan-10 00:00:00.0000, 3.079960666618482E+07, -6.525939263344791E+08, 1.484358440225887E+07,
2461057.500000000, A.D. 2026-Jan-17 00:00:00.0000, 3.890490431801204E+07, -6.533937418842715E+08, 1.414411101083234E+07,
2461064.500000000, A.D. 2026-Jan-24 00:00:00.0000, 4.700349007056060E+07, -6.540805744738045E+08, 1.344219098101014E+07,
2461071.500000000, A.D. 2026-Jan-31 00:00:00.0000, 5.509400651304850E+07, -6.546549264829947E+08, 1.273795861102188E+07,
2461078.500000000, A.D. 2026-Feb-07 00:00:00.0000, 6.317511205287546E+07, -6.551173098671918E+08, 1.203154700103185E+07,
2461085.500000000, A.D. 2026-Feb-14 00:00:00.0000, 7.124548103717136E+07, -6.554682461847868E+08, 1.132308800382823E+07,
2461092.500000000, A.D. 2026-Feb-21 00:00:00.0000, 7.930380456545401E+07, -6.557082662081698E+08, 1.061271214691791E+07,
2461099.500000000, A.D. 2026-Feb-28 00:00:00.0000, 8.734879090847892E+07, -6.558379079637966E+08, 9.900548719886184E+06,
2461106.500000000, A.D. 2026-Mar-07 00:00:00.0000, 9.537916347468616E+07, -6.558577151503785E+08, 9.186726056507081E+06,
2461113.500000000, A.D. 2026-Mar-14 00:00:00.0000, 1.033936591002174E+08, -6.557682382670988E+08, 8.471371566400796E+06,
2461120.500000000, A.D. 2026-Mar-21 00:00:00.0000, 1.113910284457866E+08, -6.555700355535820E+08, 7.754611589613199E+06,
2461127.500000000, A.D. 2026-Mar-28 00:00:00.0000, 1.193700364911976E+08, -6.552636727128725E+08, 7.036571342607230E+06,
2461134.500000000, A.D. 2026-Apr-04 00:00:00.0000, 1.273294625238760E+08, -6.548497223828448E+08, 6.317374932266176E+06,
2461141.500000000, A.D. 2026-Apr-11 00:00:00.0000, 1.352680998954395E+08, -6.543287637156869E+08, 5.597145383533925E+06,
2461148.500000000, A.D. 2026-Apr-18 00:00:00.0000, 1.431847557058122E+08, -6.537013820718350E+08, 4.876004665709049E+06,
2461155.500000000, A.D. 2026-Apr-25 00:00:00.0000, 1.510782504610772E+08, -6.529681688133103E+08, 4.154073714562297E+06,
2461162.500000000, A.D. 2026-May-02 00:00:00.0000, 1.589474177362822E+08, -6.521297212257669E+08, 3.431472445205688E+06,
2461169.500000000, A.D. 2026-May-09 00:00:00.0000, 1.667911039684142E+08, -6.511866426352406E+08, 2.708319739011943E+06,
2461176.500000000, A.D. 2026-May-16 00:00:00.0000, 1.746081687580813E+08, -6.501395425811678E+08, 1.984733381350398E+06,
2461183.500000000, A.D. 2026-May-23 00:00:00.0000, 1.823974857321273E+08, -6.489890360233084E+08, 1.260830029012173E+06,
2461190.500000000, A.D. 2026-May-30 00:00:00.0000, 1.901579418888442E+08, -6.477357412628753E+08, 5.367254240796864E+05,
2461197.500000000, A.D. 2026-Jun-06 00:00:00.0000, 1.978884351084988E+08, -6.463802798509213E+08, -1.874653842867017E+05,
2461204.500000000, A.D. 2026-Jun-13 00:00:00.0000, 2.055878734953830E+08, -6.449232782845906E+08, -9.116281302987039E+05,
2461211.500000000, A.D. 2026-Jun-20 00:00:00.0000, 2.132551760506223E+08, -6.433653685650731E+08, -1.635649449349344E+06,
2461218.500000000, A.D. 2026-Jun-27 00:00:00.0000, 2.208892729774326E+08, -6.417071879571003E+08, -2.359416895426065E+06,
2461225.500000000, A.D. 2026-Jul-04 00:00:00.0000, 2.284891056186956E+08, -6.399493787246876E+08, -3.082818921725184E+06,
2461232.500000000, A.D. 2026-Jul-11 00:00:00.0000, 2.360536262807684E+08, -6.380925879747661E+08, -3.805744858819187E+06,
2461239.500000000, A.D. 2026-Jul-18 00:00:00.0000, 2.435817980362433E+08, -6.361374675826634E+08, -4.528084897052824E+06,
2461246.500000000, A.D. 2026-Jul-25 00:00:00.0000, 2.510725945301296E+08, -6.340846741963909E+08, -5.249730075430185E+06,
2461253.500000000, A.D. 2026-Aug-01 00:00:00.0000, 2.585249998376219E+08, -6.319348693675585E+08, -5.970572285541743E+06,
2461260.500000000, A.D. 2026-Aug-08 00:00:00.0000, 2.659380085884283E+08, -6.296887198445654E+08, -6.690504313321620E+06,
2461267.500000000, A.D. 2026-Aug-15 00:00:00.0000, 2.733106267727205E+08, -6.273468975775675E+08, -7.409419919987619E+06,
2461274.500000000, A.D. 2026-Aug-22 00:00:00.0000, 2.806418724674814E+08, -6.249100782138234E+08, -8.127213792591661E+06,
2461281.500000000, A.D. 2026-Aug-29 00:00:00.0000, 2.879307741937565E+08, -6.223789394557314E+08, -8.843781266446441E+06,
2461288.500000000, A.D. 2026-Sep-05 00:00:00.0000, 2.951763690381750E+08, -6.197541621488560E+08, -9.559018249548435E+06,
2461295.500000000, A.D. 2026-Sep-12 00:00:00.0000, 3.023777029938715E+08, -6.170364316036990E+08, -1.027282137021440E+07,
$$EOE